{"type": "FeatureCollection", "features": [{"type": "Feature", "properties": {"norad_id": 66319, "name": "STARLINK-35442", "group": "last-30-days", "lat": -40.182328927095426, "lon": -42.59246155738981, "alt_km": 445.4161594183406, "timestamp": "2025-12-06T09:34:15.697031+00:00", "meta": {"OBJECT_NAME": "STARLINK-35442", "OBJECT_ID": "2025-253A", "EPOCH": "2025-12-05T12:05:52.109376", "MEAN_MOTION": 15.40738627, "ECCENTRICITY": 0.0002127, "INCLINATION": 42.9979, "RA_OF_ASC_NODE": 27.5733, "ARG_OF_PERICENTER": 268.8437, "MEAN_ANOMALY": 91.2176, "EPHEMERIS_TYPE": 0, "CLASSIFICATION_TYPE": "U", "NORAD_CAT_ID": 66319, "ELEMENT_SET_NO": 999, "REV_AT_EPOCH": 580, "BSTAR": 0.001677905, "MEAN_MOTION_DOT": 0.0007053, "MEAN_MOTION_DDOT": 0}, "tle": {"line1": "1 66319U 25253A   25339.50407534  .00070530  00000+0  16779-2 0  9998", "line2": "2 66319  42.9979  27.5733 0002127 268.8437  91.2176 15.40738627  5806"}}, "geometry": {"type": "Point", "coordinates": [-42.59246155738981, -40.182328927095426]}}, {"type": "Feature", "properties": {"norad_id": 66320, "name": "STARLINK-34616", "group": "last-30-days", "lat": 41.689479362006765, "lon": 129.10699235022895, "alt_km": 438.28847094548564, "timestamp": "2025-12-06T09:34:15.697098+00:00", "meta": {"OBJECT_NAME": "STARLINK-34616", "OBJECT_ID": "2025-253B", "EPOCH": "2025-12-05T22:00:03.000096", "MEAN_MOTION": 15.40631555, "ECCENTRICITY": 0.00013197, "INCLINATION": 43.001, "RA_OF_ASC_NODE": 24.7746, "ARG_OF_PERICENTER": 264.9584, "MEAN_ANOMALY": 40.6744, "EPHEMERIS_TYPE": 0, "CLASSIFICATION_TYPE": "U", "NORAD_CAT_ID": 66320, "ELEMENT_SET_NO": 999, "REV_AT_EPOCH": 603, "BSTAR": 0.0016579198, "MEAN_MOTION_DOT": 0.00069426, "MEAN_MOTION_DDOT": 0}, "tle": {"line1": "1 66320U 25253B   25339.91670139  .00069426  00000+0  16579-2 0  9998", "line2": "2 66320  43.0010  24.7746 0001319 264.9584  40.6744 15.40631555  6038"}}, "geometry": {"type": "Point", "coordinates": [129.10699235022895, 41.689479362006765]}}, {"type": "Feature", "properties": {"norad_id": 66321, "name": "STARLINK-34615", "group": "last-30-days", "lat": 24.7473154346695, "lon": 171.3714828024066, "alt_km": 411.71763430125156, "timestamp": "2025-12-06T09:34:15.697116+00:00", "meta": {"OBJECT_NAME": "STARLINK-34615", "OBJECT_ID": "2025-253C", "EPOCH": "2025-12-05T22:00:03.000096", "MEAN_MOTION": 15.50544712, "ECCENTRICITY": 0.00015497, "INCLINATION": 43.0005, "RA_OF_ASC_NODE": 23.8388, "ARG_OF_PERICENTER": 264.8132, "MEAN_ANOMALY": 62.9814, "EPHEMERIS_TYPE": 0, "CLASSIFICATION_TYPE": "U", "NORAD_CAT_ID": 66321, "ELEMENT_SET_NO": 999, "REV_AT_EPOCH": 588, "BSTAR": 0.0006596831, "MEAN_MOTION_DOT": 0.00038502, "MEAN_MOTION_DDOT": 0}, "tle": {"line1": "1 66321U 25253C   25339.91670139  .00038502  00000+0  65968-3 0  9997", "line2": "2 66321  43.0005  23.8388 0001549 264.8132  62.9814 15.50544712  5884"}}, "geometry": {"type": "Point", "coordinates": [171.3714828024066, 24.7473154346695]}}, {"type": "Feature", "properties": {"norad_id": 66322, "name": "STARLINK-35292", "group": "last-30-days", "lat": -22.431752355883212, "lon": -3.969673098282145, "alt_km": 445.29607753367964, "timestamp": "2025-12-06T09:34:15.697153+00:00", "meta": {"OBJECT_NAME": "STARLINK-35292", "OBJECT_ID": "2025-253D", "EPOCH": "2025-12-05T15:02:54.737088", "MEAN_MOTION": 15.40703826, "ECCENTRICITY": 0.0001164, "INCLINATION": 43.0001, "RA_OF_ASC_NODE": 26.7752, "ARG_OF_PERICENTER": 264.2115, "MEAN_ANOMALY": 95.8608, "EPHEMERIS_TYPE": 0, "CLASSIFICATION_TYPE": "U", "NORAD_CAT_ID": 66322, "ELEMENT_SET_NO": 999, "REV_AT_EPOCH": 582, "BSTAR": 0.0024134821, "MEAN_MOTION_DOT": 0.00101882, "MEAN_MOTION_DDOT": 0}, "tle": {"line1": "1 66322U 25253D   25339.62702242  .00101882  00000+0  24135-2 0  9999", "line2": "2 66322  43.0001  26.7752 0001164 264.2115  95.8608 15.40703826  5828"}}, "geometry": {"type": "Point", "coordinates": [-3.969673098282145, -22.431752355883212]}}, {"type": "Feature", "properties": {"norad_id": 66323, "name": "STARLINK-35309", "group": "last-30-days", "lat": -6.412694604974034, "lon": -151.2871692592278, "alt_km": 415.86590510184215, "timestamp": "2025-12-06T09:34:15.697166+00:00", "meta": {"OBJECT_NAME": "STARLINK-35309", "OBJECT_ID": "2025-253E", "EPOCH": "2025-12-05T20:23:32.925696", "MEAN_MOTION": 15.50706336, "ECCENTRICITY": 0.00023811, "INCLINATION": 42.9977, "RA_OF_ASC_NODE": 24.9985, "ARG_OF_PERICENTER": 56.0172, "MEAN_ANOMALY": 304.0914, "EPHEMERIS_TYPE": 0, "CLASSIFICATION_TYPE": "U", "NORAD_CAT_ID": 66323, "ELEMENT_SET_NO": 999, "REV_AT_EPOCH": 586, "BSTAR": 0.0020443836, "MEAN_MOTION_DOT": 0.00122037, "MEAN_MOTION_DDOT": 0}, "tle": {"line1": "1 66323U 25253E   25339.84968664  .00122037  00000+0  20444-2 0  9990", "line2": "2 66323  42.9977  24.9985 0002381  56.0172 304.0914 15.50706336  5868"}}, "geometry": {"type": "Point", "coordinates": [-151.2871692592278, -6.412694604974034]}}, {"type": "Feature", "properties": {"norad_id": 66324, "name": "STARLINK-35506", "group": "last-30-days", "lat": -1.649684040117034, "lon": -156.43378320449023, "alt_km": 414.76794283622075, "timestamp": "2025-12-06T09:34:15.697179+00:00", "meta": {"OBJECT_NAME": "STARLINK-35506", "OBJECT_ID": "2025-253F", "EPOCH": "2025-12-03T12:46:12.432576", "MEAN_MOTION": 15.5059009, "ECCENTRICITY": 8.705e-05, "INCLINATION": 43.0006, "RA_OF_ASC_NODE": 38.5692, "ARG_OF_PERICENTER": 276.2742, "MEAN_ANOMALY": 83.8019, "EPHEMERIS_TYPE": 0, "CLASSIFICATION_TYPE": "U", "NORAD_CAT_ID": 66324, "ELEMENT_SET_NO": 999, "REV_AT_EPOCH": 550, "BSTAR": 0.00045167229, "MEAN_MOTION_DOT": 0.00026255, "MEAN_MOTION_DDOT": 0}, "tle": {"line1": "1 66324U 25253F   25337.53208834  .00026255  00000+0  45167-3 0  9996", "line2": "2 66324  43.0006  38.5692 0000870 276.2742  83.8019 15.50590090  5507"}}, "geometry": {"type": "Point", "coordinates": [-156.43378320449023, -1.649684040117034]}}, {"type": "Feature", "properties": {"norad_id": 66325, "name": "STARLINK-35504", "group": "last-30-days", "lat": 32.91650713931464, "lon": 66.11574061128898, "alt_km": 439.7557506038256, "timestamp": "2025-12-06T09:34:15.697196+00:00", "meta": {"OBJECT_NAME": "STARLINK-35504", "OBJECT_ID": "2025-253G", "EPOCH": "2025-12-05T22:00:03.000096", "MEAN_MOTION": 15.40661369, "ECCENTRICITY": 0.00014714, "INCLINATION": 43.0009, "RA_OF_ASC_NODE": 24.8946, "ARG_OF_PERICENTER": 249.324, "MEAN_ANOMALY": 6.5023, "EPHEMERIS_TYPE": 0, "CLASSIFICATION_TYPE": "U", "NORAD_CAT_ID": 66325, "ELEMENT_SET_NO": 999, "REV_AT_EPOCH": 583, "BSTAR": 0.00085734223, "MEAN_MOTION_DOT": 0.00035631, "MEAN_MOTION_DDOT": 0}, "tle": {"line1": "1 66325U 25253G   25339.91670139  .00035631  00000+0  85734-3 0  9994", "line2": "2 66325  43.0009  24.8946 0001471 249.3240   6.5023 15.40661369  5833"}}, "geometry": {"type": "Point", "coordinates": [66.11574061128898, 32.91650713931464]}}, {"type": "Feature", "properties": {"norad_id": 66326, "name": "STARLINK-35479", "group": "last-30-days", "lat": -8.354332371032983, "lon": -149.15983231831885, "alt_km": 415.01192685776005, "timestamp": "2025-12-06T09:34:15.697208+00:00", "meta": {"OBJECT_NAME": "STARLINK-35479", "OBJECT_ID": "2025-253H", "EPOCH": "2025-12-04T15:00:38.013408", "MEAN_MOTION": 15.50615042, "ECCENTRICITY": 0.0001415, "INCLINATION": 43.0005, "RA_OF_ASC_NODE": 32.1514, "ARG_OF_PERICENTER": 287.7439, "MEAN_ANOMALY": 72.3267, "EPHEMERIS_TYPE": 0, "CLASSIFICATION_TYPE": "U", "NORAD_CAT_ID": 66326, "ELEMENT_SET_NO": 999, "REV_AT_EPOCH": 567, "BSTAR": 0.001591, "MEAN_MOTION_DOT": 0.00094247, "MEAN_MOTION_DDOT": 0}, "tle": {"line1": "1 66326U 25253H   25338.62543997  .00094247  00000+0  15910-2 0  9999", "line2": "2 66326  43.0005  32.1514 0001415 287.7439  72.3267 15.50615042  5678"}}, "geometry": {"type": "Point", "coordinates": [-149.15983231831885, -8.354332371032983]}}, {"type": "Feature", "properties": {"norad_id": 66327, "name": "STARLINK-35507", "group": "last-30-days", "lat": 1.1597779714196044, "lon": -159.4295505601708, "alt_km": 414.1653960903104, "timestamp": "2025-12-06T09:34:15.697219+00:00", "meta": {"OBJECT_NAME": "STARLINK-35507", "OBJECT_ID": "2025-253J", "EPOCH": "2025-12-05T12:42:40.996224", "MEAN_MOTION": 15.50648204, "ECCENTRICITY": 0.00014485, "INCLINATION": 43.0009, "RA_OF_ASC_NODE": 26.9019, "ARG_OF_PERICENTER": 297.9638, "MEAN_ANOMALY": 62.1076, "EPHEMERIS_TYPE": 0, "CLASSIFICATION_TYPE": "U", "NORAD_CAT_ID": 66327, "ELEMENT_SET_NO": 999, "REV_AT_EPOCH": 581, "BSTAR": 0.0027693853, "MEAN_MOTION_DOT": 0.00166025, "MEAN_MOTION_DDOT": 0}, "tle": {"line1": "1 66327U 25253J   25339.52964116  .00166025  00000+0  27694-2 0  9996", "line2": "2 66327  43.0009  26.9019 0001448 297.9638  62.1076 15.50648204  5811"}}, "geometry": {"type": "Point", "coordinates": [-159.4295505601708, 1.1597779714196044]}}, {"type": "Feature", "properties": {"norad_id": 66328, "name": "STARLINK-35460", "group": "last-30-days", "lat": 38.27227789788013, "lon": 79.93120640027465, "alt_km": 438.71703022984275, "timestamp": "2025-12-06T09:34:15.697232+00:00", "meta": {"OBJECT_NAME": "STARLINK-35460", "OBJECT_ID": "2025-253K", "EPOCH": "2025-12-05T22:00:03.000096", "MEAN_MOTION": 15.40653999, "ECCENTRICITY": 0.00015417, "INCLINATION": 43.0007, "RA_OF_ASC_NODE": 24.8614, "ARG_OF_PERICENTER": 286.6714, "MEAN_ANOMALY": 341.5939, "EPHEMERIS_TYPE": 0, "CLASSIFICATION_TYPE": "U", "NORAD_CAT_ID": 66328, "ELEMENT_SET_NO": 999, "REV_AT_EPOCH": 592, "BSTAR": 0.00096816507, "MEAN_MOTION_DOT": 0.00040291, "MEAN_MOTION_DDOT": 0}, "tle": {"line1": "1 66328U 25253K   25339.91670139  .00040291  00000+0  96817-3 0  9999", "line2": "2 66328  43.0007  24.8614 0001541 286.6714 341.5939 15.40653999  5922"}}, "geometry": {"type": "Point", "coordinates": [79.93120640027465, 38.27227789788013]}}]}